NORAD_CAT_ID,OBJECT_NAME,OBJECT_TYPE,EPOCH,MEAN_MOTION,ECCENTRICITY,INCLINATION,RA_OF_ASC_NODE,ARG_OF_PERICENTER,MEAN_ANOMALY,BSTAR,MEAN_MOTION_DOT,MEAN_MOTION_DDOT,TLE_LINE0,TLE_LINE1,TLE_LINE2,SEMIMAJOR_AXIS,PERIOD,APOGEE,PERIGEE,DECAYED
52355.0,STARLINK-3877,PAYLOAD,2024-01-19 12:19:13,15.08852599,0.0001342,53.2166,101.467,112.6272,247.4862,0.00017013,2.422e-05,0.0,0 STARLINK-3877,1 52355U 22045AA  24019.51335454  .00002422  00000-0  17013-3 0  9994,2 52355  53.2166 101.4670 0001342 112.6272 247.4862 15.08852599 98007,6917.842,95.437,540.635,538.779,0.0
52355.0,STARLINK-3877,PAYLOAD,2024-01-20 10:34:38,15.08841828,0.0001554,53.2176,97.3073,110.6107,249.5052,-2.7473e-05,-7.25e-06,0.0,0 STARLINK-3877,1 52355U 22045AA  24020.44071945 -.00000725  00000-0 -27473-4 0  9998,2 52355  53.2176  97.3073 0001554 110.6107 249.5052 15.08841828 98140,6917.875,95.437,540.815,538.665,0.0
52355.0,STARLINK-3877,PAYLOAD,2024-01-20 12:10:01,15.08841062,0.0001441,53.2173,97.0099,102.7695,257.3459,-3.5617e-05,-8.55e-06,0.0,0 STARLINK-3877,1 52355U 22045AA  24020.50696006 -.00000855  00000-0 -35617-4 0  9999,2 52355  53.2173  97.0099 0001441 102.7695 257.3459 15.08841062 98150,6917.877,95.437,540.739,538.745,0.0
52355.0,STARLINK-3877,PAYLOAD,2024-01-20 15:20:47,15.08841572,0.0001446,53.2171,96.4123,101.8871,258.2283,-2.1735e-05,-6.34e-06,0.0,0 STARLINK-3877,1 52355U 22045AA  24020.63943940 -.00000634  00000-0 -21735-4 0  9996,2 52355  53.2171  96.4123 0001446 101.8871 258.2283 15.08841572 98173,6917.876,95.437,540.741,538.74,0.0
52355.0,STARLINK-3877,PAYLOAD,2024-01-21 12:00:48,15.08839176,0.0001773,53.2179,92.5504,76.2632,283.8557,2.804e-05,1.58e-06,0.0,0 STARLINK-3877,1 52355U 22045AA  24021.50056696  .00000158  00000-0  28040-4 0  9991,2 52355  53.2179  92.5504 0001773  76.2632 283.8557 15.08839176 98304,6917.883,95.438,540.974,538.521,0.0
52355.0,STARLINK-3877,PAYLOAD,2024-01-21 13:36:11,15.08845439,0.0001674,53.2181,92.2481,105.3742,254.7436,9.5631e-05,1.234e-05,0.0,0 STARLINK-3877,1 52355U 22045AA  24021.56680019  .00001234  00000-0  95631-4 0  9995,2 52355  53.2181  92.2481 0001674 105.3742 254.7436 15.08845439 98317,6917.864,95.437,540.887,538.571,0.0
52355.0,STARLINK-3877,PAYLOAD,2024-01-22 03:54:40,15.08840884,0.0001758,53.2184,89.5805,106.9972,253.1213,0.00010765,1.426e-05,0.0,0 STARLINK-3877,1 52355U 22045AA  24022.16296334  .00001426  00000-0  10765-3 0  9992,2 52355  53.2184  89.5805 0001758 106.9972 253.1213 15.08840884 98409,6917.878,95.437,540.959,538.527,0.0
52355.0,STARLINK-3877,PAYLOAD,2024-01-22 11:51:35,15.08849231,0.0001451,53.2165,88.0889,105.8,254.3152,-1.0185e-06,-3.04e-06,0.0,0 STARLINK-3877,1 52355U 22045AA  24022.49416298 -.00000304  00000-0 -10185-5 0  9995,2 52355  53.2165  88.0889 0001451 105.8000 254.3152 15.08849231 98459,6917.852,95.437,540.721,538.713,0.0
52355.0,STARLINK-3877,PAYLOAD,2024-01-23 11:42:22,15.08852903,0.0001713,53.2187,83.6297,77.7467,282.3717,4.8509e-05,4.84e-06,0.0,0 STARLINK-3877,1 52355U 22045AA  24023.48776274  .00000484  00000-0  48509-4 0  9995,2 52355  53.2187  83.6297 0001713  77.7467 282.3717 15.08852903 98607,6917.841,95.437,540.891,538.521,0.0
52355.0,STARLINK-3877,PAYLOAD,2024-01-24 09:57:47,15.08837324,0.0001657,53.2181,79.4677,75.9582,284.1594,0.00010368,1.362e-05,0.0,0 STARLINK-3877,1 52355U 22045AA  24024.41513225  .00001362  00000-0  10368-3 0  9991,2 52355  53.2181  79.4677 0001657  75.9582 284.1594 15.08837324 98749,6917.889,95.438,540.9,538.607,0.0
52355.0,STARLINK-3877,PAYLOAD,2024-01-25 09:48:33,15.08849104,0.0001725,53.2179,75.0109,109.2034,250.9145,3.2067e-05,2.22e-06,0.0,0 STARLINK-3877,1 52355U 22045AA  24025.40872662  .00000222  00000-0  32067-4 0  9999,2 52355  53.2179  75.0109 0001725 109.2034 250.9145 15.08849104 98895,6917.853,95.437,540.911,538.524,0.0
52355.0,STARLINK-3877,PAYLOAD,2024-01-26 09:39:21,15.08844223,0.0002192,53.2189,70.5542,129.1398,230.9789,9.7731e-05,1.268e-05,0.0,0 STARLINK-3877,1 52355U 22045AA  24026.40232743  .00001268  00000-0  97731-4 0  9990,2 52355  53.2189  70.5542 0002192 129.1398 230.9789 15.08844223 99047,6917.867,95.437,541.249,538.216,0.0
52355.0,STARLINK-3877,PAYLOAD,2024-01-27 12:40:55,15.08834694,0.0001435,53.2171,65.4925,105.0626,255.0525,-3.9489e-05,-9.16e-06,0.0,0 STARLINK-3877,1 52355U 22045AA  24027.52841900 -.00000916  00000-0 -39489-4 0  9992,2 52355  53.2171  65.4925 0001435 105.0626 255.0525 15.08834694 99218,6917.897,95.438,540.754,538.769,0.0
52355.0,STARLINK-3877,PAYLOAD,2024-01-28 09:20:55,15.088443,0.0001834,53.2177,61.6244,122.7403,237.3766,-1.1727e-06,-3.07e-06,0.0,0 STARLINK-3877,1 52355U 22045AA  24028.38953603 -.00000307  00000-0 -11727-5 0  9991,2 52355  53.2177  61.6244 0001834 122.7403 237.3766 15.08844300 99347,6917.867,95.437,541.001,538.464,0.0
52355.0,STARLINK-3877,PAYLOAD,2024-01-29 10:47:06,15.08839852,0.0001726,53.2172,56.8668,93.2065,266.9125,0.00045654,6.985e-05,0.0,0 STARLINK-3877,1 52355U 22045AA  24029.44938138  .00006985  00000-0  45654-3 0  9995,2 52355  53.2172  56.8668 0001726  93.2065 266.9125 15.08839852 99505,6917.881,95.438,540.94,538.552,0.0
52355.0,STARLINK-3877,PAYLOAD,2024-01-30 09:02:30,15.08843409,0.0001674,53.2168,52.7,103.0152,257.1027,7.7489e-05,9.46e-06,0.0,0 STARLINK-3877,1 52355U 22045AA  24030.37673850  .00000946  00000-0  77489-4 0  9999,2 52355  53.2168  52.7000 0001674 103.0152 257.1027 15.08843409 99645,6917.87,95.437,540.893,538.577,0.0
52355.0,STARLINK-3877,PAYLOAD,2024-01-31 08:53:17,15.08851405,0.0001769,53.218,48.2419,78.2654,281.8536,9.2894e-05,1.191e-05,0.0,0 STARLINK-3877,1 52355U 22045AA  24031.37033576  .00001191  00000-0  92894-4 0  9995,2 52355  53.2180  48.2419 0001769  78.2654 281.8536 15.08851405 99798,6917.846,95.437,540.934,538.487,0.0
52355.0,STARLINK-3877,PAYLOAD,2024-02-01 00:47:08,15.08842362,0.0002078,53.2178,45.2694,69.9062,290.2154,0.00012273,1.666e-05,0.0,0 STARLINK-3877,1 52355U 22045AA  24032.03274060  .00001666  00000-0  12273-3 0  9993,2 52355  53.2178  45.2694 0002078  69.9062 290.2154 15.08842362 99894,6917.873,95.437,541.176,538.301,0.0
52355.0,STARLINK-3877,PAYLOAD,2024-02-01 07:08:41,15.08840281,0.0001893,53.2185,44.0794,76.4091,283.7112,7.5876e-05,9.2e-06,0.0,0 STARLINK-3877,1 52355U 22045AA  24032.29770165  .00000920  00000-0  75876-4 0  9999,2 52355  53.2185  44.0794 0001893  76.4091 283.7112 15.08840281 99933,6917.88,95.438,541.054,538.435,0.0
52355.0,STARLINK-3877,PAYLOAD,2024-02-02 03:48:41,15.08843184,0.0001705,53.2178,40.2124,96.3333,263.7853,4.5909e-05,4.43e-06,0.0,0 STARLINK-3877,1 52355U 22045AA  24033.15881840  .00000443  00000-0  45909-4 0  9992,2 52355  53.2178  40.2124 0001705  96.3333 263.7853 15.08843184100064,6917.871,95.437,540.915,538.556,0.0
52355.0,STARLINK-3877,PAYLOAD,2024-02-02 10:10:14,15.08845354,0.0001666,53.2177,39.0218,101.7445,258.3734,4.6046e-05,4.45e-06,0.0,0 STARLINK-3877,1 52355U 22045AA  24033.42377530  .00000445  00000-0  46046-4 0  9993,2 52355  53.2177  39.0218 0001666 101.7445 258.3734 15.08845354100108,6917.864,95.437,540.882,538.577,0.0
52355.0,STARLINK-3877,PAYLOAD,2024-02-03 03:39:29,15.08836315,0.0001662,53.2179,35.7485,98.4978,261.6202,1.1807e-05,-1e-06,0.0,0 STARLINK-3877,1 52355U 22045AA  24034.15242308 -.00000100  00000-0  11807-4 0  9994,2 52355  53.2179  35.7485 0001662  98.4978 261.6202 15.08836315100214,6917.892,95.438,540.906,538.607,0.0
52355.0,STARLINK-3877,PAYLOAD,2024-02-03 06:50:15,15.08837024,0.0001654,53.218,35.1539,95.4956,264.6225,1.4889e-05,-5.1e-07,0.0,0 STARLINK-3877,1 52355U 22045AA  24034.28490330 -.00000051  00000-0  14889-4 0  9996,2 52355  53.2180  35.1539 0001654  95.4956 264.6225 15.08837024100232,6917.889,95.438,540.899,538.61,0.0
52355.0,STARLINK-3877,PAYLOAD,2024-02-04 09:51:48,15.08842055,0.0001682,53.2184,30.0975,99.2513,260.8669,9.5287e-05,1.229e-05,0.0,0 STARLINK-3877,1 52355U 22045AA  24035.41097946  .00001229  00000-0  95287-4 0  9996,2 52355  53.2184  30.0975 0001682  99.2513 260.8669 15.08842055100405,6917.874,95.437,540.903,538.576,0.0
52355.0,STARLINK-3877,PAYLOAD,2024-02-05 03:21:03,15.08838971,0.0001612,53.2183,26.8265,96.0843,264.0333,7.1771e-05,8.54e-06,0.0,0 STARLINK-3877,1 52355U 22045AA  24036.13962286  .00000854  00000-0  71771-4 0  9999,2 52355  53.2183  26.8265 0001612  96.0843 264.0333 15.08838971100511,6917.884,95.438,540.864,538.633,0.0
52355.0,STARLINK-3877,PAYLOAD,2024-02-05 06:31:49,15.08840101,0.0001584,53.2184,26.2382,95.5348,264.5825,0.00010667,1.41e-05,0.0,0 STARLINK-3877,1 52355U 22045AA  24036.27210270  .00001410  00000-0  10667-3 0  9998,2 52355  53.2184  26.2382 0001584  95.5348 264.5825 15.08840101100539,6917.88,95.438,540.841,538.649,0.0
52355.0,STARLINK-3877,PAYLOAD,2024-02-06 04:47:13,15.08844468,0.0001563,53.2183,22.0769,104.2086,255.908,-1.4762e-05,-5.23e-06,0.0,0 STARLINK-3877,1 52355U 22045AA  24037.19946410 -.00000523  00000-0 -14762-4 0  9999,2 52355  53.2183  22.0769 0001563 104.2086 255.9080 15.08844468100677,6917.867,95.437,540.813,538.65,0.0
52355.0,STARLINK-3877,PAYLOAD,2024-02-06 06:22:36,15.08847885,0.0001519,53.2183,21.7795,100.9845,259.1319,1.6222e-05,-3e-07,0.0,0 STARLINK-3877,1 52355U 22045AA  24037.26570134 -.00000030  00000-0  16222-4 0  9998,2 52355  53.2183  21.7795 0001519 100.9845 259.1319 15.08847885100687,6917.856,95.437,540.772,538.67,0.0
52355.0,STARLINK-3877,PAYLOAD,2024-02-06 22:16:27,15.08846041,0.0001725,53.2186,18.8052,89.4698,270.6492,8.0749e-05,9.97e-06,0.0,0 STARLINK-3877,1 52355U 22045AA  24037.92809995  .00000997  00000-0  80749-4 0  9997,2 52355  53.2186  18.8052 0001725  89.4698 270.6492 15.08846041100783,6917.862,95.437,540.92,538.534,0.0
52355.0,STARLINK-3877,PAYLOAD,2024-02-07 07:48:46,15.08853763,0.0001628,53.219,17.0179,82.7175,277.4002,0.0001151,1.545e-05,0.0,0 STARLINK-3877,1 52355U 22045AA  24038.32553559  .00001545  00000-0  11510-3 0  9993,2 52355  53.2190  17.0179 0001628  82.7175 277.4002 15.08853763100845,6917.838,95.437,540.83,538.577,0.0
